#ifndef M_TLE_INCLUDED
#define M_TLE_INCLUDED

#include "SGP4.h"
#include "Util.h"
#include "DateTime.h"
#include "TleException.h"
#include "Tle.h"

#define NUMBER_OF_SATS 4

//NOAA 15
static Tle noaa15_tle = {"NOAA15",
 "1 25338U 98030A   18219.48761998  .00000034  00000-0  33149-4 0  9995",
 "2 25338  98.7680 235.9505 0011668  79.9429 280.3066 14.25869629 52332"};

//NOAA 18
static Tle noaa18_tle = {"NOAA18",
 "1 28654U 05018A   18219.53730274  .00000007  00000-0  28983-4 0  9992",
 "2 28654  99.1414 256.0252 0013983 347.8837  12.1996 14.12381950681031"};
//NOAA 19
static Tle noaa19_tle = {"NOAA19",
 "1 33591U 09005A   18219.57438176  .00000091  00000-0  74566-4 0  9999",
 "2 33591  99.1457 198.6318 0013889 178.3154 181.8066 14.12298478489425"};

//Meteor
static Tle meteor_tle = {"Meteor-M2",
 "1 40069U 14037A   17300.19951363 -.00000018  00000-0  11868-4 0  9994",
 "2 40069  98.6393 352.0282 0005276 181.7278 178.3888 14.20646288171299"};

 //ISS
static Tle iss_tle = {"ISS (ZARYA)",
 "1 25544U 98067A   18338.20250748  .00001600  00000-0  31516-4 0  9998",
 "2 25544  51.6396 251.4641 0005143 112.2696  39.7679 15.54053511144959"};


#endif // M_TLE_INCLUDED
